0 COSMOS 2251 DEB
1 35071U 93036AJA 22067.21268576  .00002725  00000-0  35432-3 0  9997
2 35071  73.9447  48.8699 0113289 272.1769  86.6436 14.76810284470931
0 COSMOS 2251 DEB
1 35072U 93036AJB 22062.85959146  .00006046  00000-0  14248-2 0  9994
2 35072  74.0894 240.8285 0049915 196.2075 163.7494 14.53719034678123
0 COSMOS 2251 DEB
1 35073U 93036AJC 22068.81641210  .00002097  00000-0  51359-3 0  9994
2 35073  74.0201 109.8261 0041265 205.5937 154.3183 14.52615347473186
0 COSMOS 2251 DEB
1 35076U 93036AJF 22068.69596693  .00002771  00000-0  47537-3 0  9999
2 35076  73.9703 222.6952 0069121  43.0851 317.5698 14.67676926421954
0 IRIDIUM 33 DEB
1 35079U 97051PE  22067.14921954  .00006167  00000-0  24520-2 0  9993
2 35079  86.4332  19.3250 0146356 240.8803 117.7670 14.22894076665562
0 IRIDIUM 33 DEB
1 35080U 97051PF  22068.90589860  .00003270  00000-0  13762-2 0  9994
2 35080  86.2376 297.2110 0184858   2.0210 358.1679 14.16753855499502
0 FENGYUN 1C DEB
1 35088U 99025DJQ 22069.05366296  .00001094  00000-0  70222-3 0  9995
2 35088  94.6561 191.7189 0355518   7.9094 352.7472 13.77010945711083
0 FENGYUN 1C DEB
1 35089U 99025DJR 22068.83888597  .00000636  00000-0  35052-3 0  9997
2 35089  98.6590 107.9133 0030569  62.4532 297.9742 14.14778756414215
0 FENGYUN 1C DEB
1 35090U 99025DJS 22066.33108209  .00001585  00000-0  97196-3 0  9998
2 35090  99.1314  33.4709 0062523 270.0541  89.3462 14.06307285468386
0 FENGYUN 1C DEB
1 35091U 99025DJT 22068.41487707  .00002402  00000-0  88846-3 0  9994
2 35091  98.6486 142.9762 0079261  93.4810 267.5443 14.31534103701152
0 FENGYUN 1C DEB
1 35093U 99025DJV 22069.09313792  .00007089  00000-0  14779-2 0  9992
2 35093  98.6130 179.2810 0152171 143.3970 217.7739 14.53197401716714
0 FENGYUN 1C DEB
1 35094U 99025DJW 22067.27696788  .00016945  00000-0  33845-2 0  9996
2 35094  97.7170 255.6987 0174996 197.7420 336.5790 14.52648999456838
0 FENGYUN 1C DEB
1 35095U 99025DJX 22068.10746513  .00004679  00000-0  87494-3 0  9993
2 35095  98.4651 171.5719 0210410  75.1226 287.3168 14.52068839517812
0 FENGYUN 1C DEB
1 35097U 99025DJZ 22069.21361893  .00004108  00000-0  43620-3 0  9992
2 35097  98.6896  56.5069 0174592 192.5676 167.1153 14.79098715743679
0 FENGYUN 1C DEB
1 35099U 99025DKB 22067.39600205  .00025060  00000-0  13347-2 0  9996
2 35099  98.3438 292.7078 0122134 359.1384   0.9613 15.08908717751361
0 FENGYUN 1C DEB
1 35102U 99025DKE 22068.34629292  .00000619  00000-0  28270-3 0  9999
2 35102  98.5769 100.3067 0065141 152.1019 208.3678 14.23867520453251
0 FENGYUN 1C DEB
1 35104U 99025DKG 22068.37017294  .00000441  00000-0  24087-3 0  9992
2 35104  98.6732  97.5722 0033796 138.3579 233.9498 14.16676377702865
0 FENGYUN 1C DEB
1 35105U 99025DKH 22069.01429697  .00000353  00000-0  11787-3 0  9994
2 35105  98.8365 340.0271 0121717 178.3889 249.6772 14.39805773746916
0 FENGYUN 1C DEB
1 35108U 99025DKL 22067.81144466  .00000193  00000-0  13641-3 0  9994
2 35108  98.8065  88.2377 0137075 321.7604  37.3902 14.04584092699236
0 FENGYUN 1C DEB
1 35109U 99025DKM 22068.28129935  .00000380  00000-0  18095-3 0  9997
2 35109  98.5788  83.3289 0159011  46.4171 315.0078 14.18223097446621
0 FENGYUN 1C DEB
1 35110U 99025DKN 22064.37487103  .00003075  00000-0  79902-3 0  9997
2 35110  96.6636 306.5795 0121756 154.4537 206.2745 14.45793473741357
0 FENGYUN 1C DEB
1 35111U 99025DKP 22069.22722590  .00000554  00000-0  35355-3 0  9992
2 35111  99.5471  53.0464 0024437  55.4390 304.9078 14.08058474733696
0 FENGYUN 1C DEB
1 35114U 99025DKS 22068.28062862  .00026694  00000-0  96409-3 0  9999
2 35114  97.7950 268.8881 0129186 142.2025 218.8371 15.20828287476186
0 FENGYUN 1C DEB
1 35116U 99025DKU 22068.87704594  .00001015  00000-0  51476-3 0  9996
2 35116  98.7852 117.7345 0067697  51.3395 309.3811 14.17037155404542
0 FENGYUN 1C DEB
1 35117U 99025DKV 22069.08802145  .00003604  00000-0  11806-2 0  9990
2 35117  98.7481 176.1122 0050492  34.9652  91.1818 14.38325842695946
0 FENGYUN 1C DEB
1 35118U 99025DKW 22065.65179339  .00004961  00000-0  66016-3 0  9993
2 35118  97.9537 208.8552 0169844 327.6695  31.4190 14.70574253760931
0 FENGYUN 1C DEB
1 35119U 99025DKX 22058.11084668  .00006131  00000-0  10168-2 0  9994
2 35119  99.9613  21.1208 0044792 156.4840 261.4251 14.70038957453249
0 FENGYUN 1C DEB
1 35120U 99025DKY 22064.94859220  .00003051  00000-0  17282-2 0  9990
2 35120  98.0161 123.7215 0159164 343.3745  16.2240 14.04505450443514
0 FENGYUN 1C DEB
1 35121U 99025DKZ 22061.10401992  .00000302  00000-0  19415-3 0  9992
2 35121  98.3330  18.5127 0161266  53.8432 307.7535 14.03228735417053
0 FENGYUN 1C DEB
1 35122U 99025DLA 22068.37047733  .00000307  00000-0  19092-3 0  9994
2 35122  98.8062 104.4335 0026984 109.3719 251.0373 14.11883350444600
0 FENGYUN 1C DEB
1 35123U 99025DLB 22068.61724390  .00000686  00000-0  34984-3 0  9990
2 35123  98.9923 199.2449 0055234  40.2680 320.2566 14.18336312415593
0 FENGYUN 1C DEB
1 35125U 99025DLD 22067.90253448  .00001238  00000-0  56491-3 0  9995
2 35125  98.3233 138.4669 0061734  31.8052 328.6832 14.22230873730311
0 FENGYUN 1C DEB
1 35128U 99025DLG 22069.04713344  .00003506  00000-0  18954-2 0  9992
2 35128  98.3604   4.6113 0134366  27.7739 333.0524 14.08652579712281
0 FENGYUN 1C DEB
1 35130U 99025DLJ 22068.00229873  .00003814  00000-0  18159-2 0  9998
2 35130  99.0625 172.8674 0053678 193.0301 166.9490 14.19198425451061
0 FENGYUN 1C DEB
1 35134U 99025DLN 22063.46238013  .00003551  00000-0  92524-3 0  9990
2 35134  98.8729 319.2805 0063654 302.8600  56.6475 14.49023676695748
0 FENGYUN 1C DEB
1 35135U 99025DLP 22067.03129295  .00000502  00000-0  25542-3 0  9998
2 35135  98.6540  97.8763 0085496 302.0447  87.2012 14.18349153682985
0 FENGYUN 1C DEB
1 35136U 99025DLQ 22067.46050197  .00002803  00000-0  99010-3 0  9997
2 35136  98.6849 151.9990 0075872  68.2191 292.7045 14.33854380386302
0 FENGYUN 1C DEB
1 35137U 99025DLR 22068.67790303  .00009949  00000-0  31567-2 0  9992
2 35137  99.0915 220.4697 0233857 210.6093 162.8066 14.25735991492508
0 FENGYUN 1C DEB
1 35139U 99025DLT 22068.81194415  .00000370  00000-0  19778-3 0  9992
2 35139  98.6533  96.8446 0070482 302.7954  56.6445 14.17836947446650
0 FENGYUN 1C DEB
1 35140U 99025DLU 22067.82704656  .00000238  00000-0  88223-4 0  9993
2 35140  98.4365  98.0710 0299241   8.0031 165.9966 14.18968352677665
0 FENGYUN 1C DEB
1 35141U 99025DLV 22068.97031934  .00001374  00000-0  80558-3 0  9997
2 35141  99.0579 148.3120 0076958 314.6533 221.4263 14.08467122710568
0 FENGYUN 1C DEB
1 35142U 99025DLW 22068.78912779  .00000149  00000-0  15034-3 0  9998
2 35142  99.0292  86.1078 0109226 345.4076 190.5469 13.89368235666030
0 FENGYUN 1C DEB
1 35144U 99025DLY 22066.15693662  .00002789  00000-0  10785-2 0  9995
2 35144  98.7304 141.1228 0046994 145.8461 214.5760 14.30308845453913
0 FENGYUN 1C DEB
1 35145U 99025DLZ 22066.61397838  .00019640  00000-0  90427-3 0  9999
2 35145  99.6013 204.0695 0087882  20.4419 340.0289 15.16931985767696
0 FENGYUN 1C DEB
1 35146U 99025DMA 22068.03214953  .00007976  00000-0  13328-2 0  9997
2 35146  98.2498 179.2687 0245521 114.0108 248.6997 14.52121518447162
0 FENGYUN 1C DEB
1 35147U 99025DMB 22068.40328160  .00002367  00000-0  76152-3 0  9999
2 35147  99.5093 305.8561 0049176 303.7547  55.8957 14.39742012543577
0 FENGYUN 1C DEB
1 35148U 99025DMC 22066.31145043  .00004710  00000-0  98047-3 0  9996
2 35148  98.9734  88.2614 0088014   7.1588 353.0843 14.58141945763781
0 FENGYUN 1C DEB
1 35152U 99025DMG 22068.59999095  .00000768  00000-0  76216-3 0  9990
2 35152  99.7056 201.8786 0198496 327.7687  31.1454 13.73357494716562
0 FENGYUN 1C DEB
1 35153U 99025DMH 22068.55157504  .00000948  00000-0  15234-3 0  9991
2 35153  98.8869 180.7704 0202906   9.4286 351.0632 14.61696449770703
0 FENGYUN 1C DEB
1 35154U 99025DMJ 22066.78018983  .00000409  00000-0  20105-3 0  9997
2 35154  99.5003  89.0904 0186826 299.8101  58.4609 14.15128927450952
0 FENGYUN 1C DEB
1 35155U 99025DMK 22068.85970894  .00000555  00000-0  30937-3 0  9992
2 35155  98.6260 117.3701 0028074  67.8312 292.5837 14.14612699736724
0 FENGYUN 1C DEB
1 35156U 99025DML 22068.75189276  .00000451  00000-0  28698-3 0  9994
2 35156  98.7057  83.8400 0038785  79.0907 281.4623 14.08161187446922
0 FENGYUN 1C DEB
1 35159U 99025DMP 22068.04128769  .00001842  00000-0  80412-3 0  9996
2 35159  98.9260  93.1772 0012879 231.6048 156.2520 14.25121830417931
0 FENGYUN 1C DEB
1 35160U 99025DMQ 22068.75822108  .00000478  00000-0  16712-3 0  9990
2 35160  99.2501  83.6740 0186894 269.0768  88.8996 14.31281227452500
0 FENGYUN 1C DEB
1 35161U 99025DMR 22068.28670489  .00008279  00000-0  10350-2 0  9990
2 35161  99.5624 270.4377 0100946 260.0324  98.9477 14.79085895521187
0 FENGYUN 1C DEB
1 35163U 99025DMT 22064.11111380  .00001701  00000-0  37326-3 0  9996
2 35163  99.0989 200.3152 0117148  39.9894 320.9855 14.54960230484902
0 FENGYUN 1C DEB
1 35164U 99025DMU 22063.53879915  .00001552  00000-0  12548-2 0  9999
2 35164  98.6282 326.9183 0213772  18.2725 342.5963 13.81538652737949
0 FENGYUN 1C DEB
1 35165U 99025DMV 22066.08868601  .00001300  00000-0  66408-3 0  9999
2 35165  98.9499 124.4576 0029211  73.7484 286.6901 14.17193896701321
0 FENGYUN 1C DEB
1 35167U 99025DMX 22065.33408160  .00000853  00000-0  28734-3 0  9990
2 35167  98.4588  90.2773 0251148 292.4526  65.0232 14.23444947503801
0 FENGYUN 1C DEB
1 35168U 99025DMY 22057.16361651  .00000211  00000-0  12391-3 0  9996
2 35168  98.2078  35.4591 0130287 170.2477 190.1272 14.12748510383431
0 FENGYUN 1C DEB
1 35169U 99025DMZ 22068.28190381  .00001336  00000-0  31935-3 0  9996
2 35169  99.1033 173.6128 0182589 263.0613  94.9777 14.45984193458405
0 FENGYUN 1C DEB
1 35170U 99025DNA 22065.55733366  .00002388  00000-0  14371-2 0  9993
2 35170  99.8381 188.4566 0107001 115.2556 245.9743 14.05050839419179
0 FENGYUN 1C DEB
1 35171U 99025DNB 22068.45517571  .00001254  00000-0  10336-2 0  9992
2 35171  98.9266 253.9636 0154329  95.9542 265.9227 13.85536299694723
